OBJECT_NAME,OBJECT_ID,EPOCH,MEAN_MOTION,ECCENTRICITY,INCLINATION,RA_OF_ASC_NODE,ARG_OF_PERICENTER,MEAN_ANOMALY,EPHEMERIS_TYPE,CLASSIFICATION_TYPE,NORAD_CAT_ID,ELEMENT_SET_NO,REV_AT_EPOCH,BSTAR,MEAN_MOTION_DOT,MEAN_MOTION_DDOT
LEMUR-2-ROUNDTRIPPER,2025-009DG,2026-07-18T18:16:39.019872,15.04262462,.0004485,97.7243,282.4037,57.6455,302.5204,0,U,62711,999,8237,.2809E-3,.3847E-4,0
LEMUR-2-MYNAMEISJEFF,2025-009DH,2026-07-18T18:14:30.202656,15.04253607,.0004339,97.7292,282.8025,90.3716,269.8007,0,U,62712,999,8237,.28304E-3,.3875E-4,0
LEMUR-2-LEIA-PHILIP,2025-052AN,2026-07-18T16:16:47.687808,14.97392473,.000504,97.6795,91.0948,112.1751,248.0006,0,U,63246,999,7338,.43895E-5,-.6E-7,0
LEMUR-2-LIA-MARTIN,2025-052AQ,2026-07-18T06:29:40.997760,14.98040971,.00050959,97.6856,91.2182,82.8339,277.3462,0,U,63248,999,7333,.12086411E-3,.1371E-4,0
LEMUR-2-DELOITTE-1,2025-052BB,2026-07-18T20:28:04.670112,14.97799936,.0002543,97.6885,92.1212,59.7870,300.3604,0,U,63259,999,7343,.20875E-3,.2394E-4,0
LEMUR-2-EMERSONROSE,2025-052BD,2026-07-18T12:42:40.683456,14.99307574,.00025378,97.6882,92.4238,54.1024,306.0435,0,U,63261,999,7343,.1864203E-3,.2218E-4,0
LEMUR-2-MARACHE-FRAN,2025-052BE,2026-07-18T16:24:11.503872,15.00327527,.0005607,97.6820,92.9461,238.5263,121.5413,0,U,63262,999,7348,.13045E-3,.1577E-4,0
LEMUR-2-THEFALCONER,2025-052BG,2026-07-18T16:24:04.362048,14.97570780,.0000539,97.6818,91.5411,237.8231,122.2939,0,U,63264,999,7340,.93164E-4,.103E-4,0
LEMUR-2-UNTITLED-SC,2025-061A,2026-07-18T21:18:37.338624,15.13659594,.0019553,97.5660,175.0260,150.7612,209.4718,0,U,63351,999,7238,.10174E-3,.177E-4,0
LEMUR-2-ESPERANZA,2025-061B,2026-07-18T15:57:10.130112,15.13764405,.0019152,97.5666,174.9054,150.8253,209.4052,0,U,63352,999,7235,.94438E-4,.1643E-4,0
LEMUR-2-KREMPEL-BRO2,2025-061C,2026-07-18T19:33:24.127776,15.14192720,.0020282,97.5710,175.6282,143.3133,216.9492,0,U,63353,999,7239,.10561E-3,.1869E-4,0
LEMUR-2-THERMORAPTOR,2025-061D,2026-07-18T20:40:16.490208,15.14275787,.0020023,97.5718,175.7562,142.1235,218.1410,0,U,63354,999,7240,.10447E-3,.1852E-4,0
LEMUR-2-NEUROSPICY,2025-061E,2026-07-18T19:55:57.664128,15.14394488,.0017799,97.5646,175.3272,145.0136,215.2268,0,U,63355,999,7240,.10396E-3,.1847E-4,0
LEMUR-2-TILLINFINITY,2025-061F,2026-07-18T18:54:04.231008,15.14979073,.0019293,97.5630,175.5972,134.1906,226.0915,0,U,63356,999,7242,.10811E-3,.1958E-4,0
LEMUR-2-KREMPEL-BRO1,2025-061G,2026-07-18T19:56:48.380064,15.14785725,.0019968,97.5632,175.5476,135.4370,224.8472,0,U,63357,999,7242,.10356E-3,.1863E-4,0
LEMUR-2-LANGER2SPACE,2025-061H,2026-07-18T20:44:07.579104,15.14479414,.0017704,97.5636,175.3817,143.2833,216.9615,0,U,63358,999,7241,.10494E-3,.187E-4,0
LEMUR-2-BALTO,2025-052BH,2026-07-18T06:25:17.152896,15.00379070,.00050173,97.6922,92.5277,314.5167,45.5646,0,U,63395,999,7342,.18215448E-3,.2228E-4,0
LEMUR-2-KRISH,2025-135AK,2026-07-18T18:30:27.669312,14.96461546,.0001124,97.7766,314.4387,102.7464,257.3883,0,U,64561,999,5864,.16579E-3,.1823E-4,0
LEMUR-2-HUBBLE-4,2025-135AP,2026-07-18T19:48:53.744256,14.93691222,.0002953,97.7722,313.3664,153.5676,206.5694,0,U,64565,999,5859,.45886E-4,.429E-5,0
LEMUR-2-SEJONG-2,2025-135BL,2026-07-18T18:59:09.490848,14.96928231,.0004189,97.7709,314.6039,201.5110,158.5936,0,U,64586,999,5867,.20427E-3,.2288E-4,0
LEMUR-2-HUBBLE-5,2025-135BT,2026-07-18T18:23:20.663232,14.94217886,.0004586,97.7742,313.9807,220.8209,139.2669,0,U,64840,999,5862,.34908E-4,.317E-5,0
LEMUR-2-KARENDARRELL,2025-135BU,2026-07-18T19:08:21.111648,15.00528659,.0012765,97.7722,315.9668,93.8513,266.4171,0,U,64841,999,5875,.31621E-3,.3933E-4,0
LEMUR-2-LUCILLE-ROSE,2025-135BV,2026-07-18T13:42:05.645088,15.00510880,.0015273,97.7705,315.7752,178.9427,181.1832,0,U,65403,999,5334,.24788E-3,.307E-4,0
LEMUR-2-AFFIE-WAUWIE,2025-248C,2026-07-18T13:44:01.212000,15.28344711,.000904,45.3903,304.7895,269.7591,90.2263,0,U,66295,999,3939,.44883E-3,.12349E-3,0
OTTER SDM,2025-276N,2026-07-18T17:13:47.975232,15.20079289,.0004479,97.4196,272.6757,237.4406,122.6396,0,U,66678,999,3520,.13166E-3,.2774E-4,0
LEMUR-2-STAS-GORBUK,2025-276W,2026-07-18T17:45:59.696064,15.19678012,.0003828,97.4231,272.7490,230.7972,129.2923,0,U,66686,999,3520,.1264E-3,.2629E-4,0
LEMUR-2-TEODOR,2025-276DG,2026-07-18T16:32:41.409024,15.21357820,.0002182,97.4137,272.9752,85.2409,274.9076,0,U,66768,999,3523,.12869E-3,.2814E-4,0
LEMUR-2-LAILA,2025-276DQ,2026-07-18T17:23:09.323808,15.21584359,.0002868,97.4160,273.1506,89.1323,271.0242,0,U,66776,999,3524,.12555E-3,.2762E-4,0
LEMUR-2-CELIJO-SB-PK,2025-276DW,2026-07-18T17:16:24.708288,15.00305865,.0006766,97.5187,269.4564,55.8337,304.3528,0,U,66781,999,2735,.23474E-3,.2886E-4,0
LEMUR-2-FINNIAN,2025-276DX,2026-07-18T18:08:29.929344,15.00638130,.0007114,97.5360,269.7672,347.4138,12.6908,0,U,66782,999,2473,.1094E-3,.1326E-4,0
